{"fetched_at":"2026-07-12T07:15:46.578Z","source":"https://celestrak.org/NORAD/elements/gp.php?NAME=KINEIS&FORMAT=JSON","constellation":"kineis","records":[{"OBJECT_NAME":"KINEIS-1B","OBJECT_ID":"2024-114A","EPOCH":"2026-07-11T22:06:27.783360","CLASSIFICATION_TYPE":"U","MEAN_MOTION":14.80664159,"ECCENTRICITY":0.00031898,"INCLINATION":97.9827,"RA_OF_ASC_NODE":216.9885,"ARG_OF_PERICENTER":45.5229,"MEAN_ANOMALY":314.6243,"EPHEMERIS_TYPE":0,"NORAD_CAT_ID":60079,"ELEMENT_SET_NO":999,"REV_AT_EPOCH":11106,"BSTAR":0.000064925972,"MEAN_MOTION_DOT":0.00000446,"MEAN_MOTION_DDOT":0},{"OBJECT_NAME":"KINEIS-1C","OBJECT_ID":"2024-114C","EPOCH":"2026-07-11T22:54:53.995104","CLASSIFICATION_TYPE":"U","MEAN_MOTION":14.80666107,"ECCENTRICITY":0.00025599,"INCLINATION":97.9841,"RA_OF_ASC_NODE":216.8766,"ARG_OF_PERICENTER":98.8957,"MEAN_ANOMALY":261.2545,"EPHEMERIS_TYPE":0,"NORAD_CAT_ID":60081,"ELEMENT_SET_NO":999,"REV_AT_EPOCH":11104,"BSTAR":0.00006036779,"MEAN_MOTION_DOT":0.00000411,"MEAN_MOTION_DDOT":0},{"OBJECT_NAME":"KINEIS-1D","OBJECT_ID":"2024-114D","EPOCH":"2026-07-11T23:39:13.260960","CLASSIFICATION_TYPE":"U","MEAN_MOTION":14.76360216,"ECCENTRICITY":0.00029189,"INCLINATION":97.9877,"RA_OF_ASC_NODE":212.8503,"ARG_OF_PERICENTER":103.2968,"MEAN_ANOMALY":256.8568,"EPHEMERIS_TYPE":0,"NORAD_CAT_ID":60082,"ELEMENT_SET_NO":999,"REV_AT_EPOCH":11078,"BSTAR":0.000057759145,"MEAN_MOTION_DOT":0.0000035,"MEAN_MOTION_DDOT":0},{"OBJECT_NAME":"KINEIS-1E","OBJECT_ID":"2024-114E","EPOCH":"2026-07-11T21:43:19.495200","CLASSIFICATION_TYPE":"U","MEAN_MOTION":14.80690854,"ECCENTRICITY":0.00040251,"INCLINATION":97.8943,"RA_OF_ASC_NODE":215.9328,"ARG_OF_PERICENTER":116.4344,"MEAN_ANOMALY":243.7281,"EPHEMERIS_TYPE":0,"NORAD_CAT_ID":60083,"ELEMENT_SET_NO":999,"REV_AT_EPOCH":11104,"BSTAR":0.000072644215,"MEAN_MOTION_DOT":0.00000507,"MEAN_MOTION_DDOT":0},{"OBJECT_NAME":"KINEIS-1A","OBJECT_ID":"2024-114F","EPOCH":"2026-07-12T00:08:45.369888","CLASSIFICATION_TYPE":"U","MEAN_MOTION":14.80679496,"ECCENTRICITY":0.00055134,"INCLINATION":97.8917,"RA_OF_ASC_NODE":216.1271,"ARG_OF_PERICENTER":70.219,"MEAN_ANOMALY":289.9616,"EPHEMERIS_TYPE":0,"NORAD_CAT_ID":60084,"ELEMENT_SET_NO":999,"REV_AT_EPOCH":11106,"BSTAR":0.000066319744,"MEAN_MOTION_DOT":0.00000458,"MEAN_MOTION_DDOT":0},{"OBJECT_NAME":"KINEIS-3C","OBJECT_ID":"2024-172A","EPOCH":"2026-07-08T19:41:03.998688","CLASSIFICATION_TYPE":"U","MEAN_MOTION":14.72355818,"ECCENTRICITY":0.00027496,"INCLINATION":98.0431,"RA_OF_ASC_NODE":279.49,"ARG_OF_PERICENTER":92.2536,"MEAN_ANOMALY":267.8986,"EPHEMERIS_TYPE":0,"NORAD_CAT_ID":61220,"ELEMENT_SET_NO":999,"REV_AT_EPOCH":9625,"BSTAR":0.00019489517,"MEAN_MOTION_DOT":0.00001184,"MEAN_MOTION_DDOT":0},{"OBJECT_NAME":"KINEIS-3D","OBJECT_ID":"2024-172B","EPOCH":"2026-07-08T19:31:21.430272","CLASSIFICATION_TYPE":"U","MEAN_MOTION":14.72360142,"ECCENTRICITY":0.00026129,"INCLINATION":98.0427,"RA_OF_ASC_NODE":279.4937,"ARG_OF_PERICENTER":92.0165,"MEAN_ANOMALY":268.1342,"EPHEMERIS_TYPE":0,"NORAD_CAT_ID":61221,"ELEMENT_SET_NO":999,"REV_AT_EPOCH":9653,"BSTAR":0.0001825622,"MEAN_MOTION_DOT":0.00001106,"MEAN_MOTION_DDOT":0},{"OBJECT_NAME":"KINEIS-3E","OBJECT_ID":"2024-172C","EPOCH":"2026-07-11T18:52:52.760064","CLASSIFICATION_TYPE":"U","MEAN_MOTION":14.72333196,"ECCENTRICITY":0.00018183,"INCLINATION":98.0428,"RA_OF_ASC_NODE":282.417,"ARG_OF_PERICENTER":90.9635,"MEAN_ANOMALY":269.178,"EPHEMERIS_TYPE":0,"NORAD_CAT_ID":61222,"ELEMENT_SET_NO":999,"REV_AT_EPOCH":9697,"BSTAR":0.0001589384,"MEAN_MOTION_DOT":0.00000955,"MEAN_MOTION_DDOT":0},{"OBJECT_NAME":"KINEIS-3A","OBJECT_ID":"2024-172D","EPOCH":"2026-07-11T18:29:07.846080","CLASSIFICATION_TYPE":"U","MEAN_MOTION":14.72302947,"ECCENTRICITY":0.00024001,"INCLINATION":98.0425,"RA_OF_ASC_NODE":282.4988,"ARG_OF_PERICENTER":49.1572,"MEAN_ANOMALY":310.9843,"EPHEMERIS_TYPE":0,"NORAD_CAT_ID":61223,"ELEMENT_SET_NO":999,"REV_AT_EPOCH":9639,"BSTAR":0.00015834493,"MEAN_MOTION_DOT":0.00000951,"MEAN_MOTION_DDOT":0},{"OBJECT_NAME":"KINEIS-3B","OBJECT_ID":"2024-172E","EPOCH":"2026-07-11T18:04:03.983232","CLASSIFICATION_TYPE":"U","MEAN_MOTION":14.72289102,"ECCENTRICITY":0.000188,"INCLINATION":98.0418,"RA_OF_ASC_NODE":282.5042,"ARG_OF_PERICENTER":36.5803,"MEAN_ANOMALY":323.5532,"EPHEMERIS_TYPE":0,"NORAD_CAT_ID":61224,"ELEMENT_SET_NO":999,"REV_AT_EPOCH":9696,"BSTAR":0.00015779958,"MEAN_MOTION_DOT":0.00000947,"MEAN_MOTION_DDOT":0},{"OBJECT_NAME":"KINEIS-5C","OBJECT_ID":"2024-219A","EPOCH":"2026-07-11T22:24:53.521056","CLASSIFICATION_TYPE":"U","MEAN_MOTION":14.72312238,"ECCENTRICITY":0.00038895,"INCLINATION":97.9062,"RA_OF_ASC_NODE":351.1018,"ARG_OF_PERICENTER":183.0482,"MEAN_ANOMALY":177.0703,"EPHEMERIS_TYPE":0,"NORAD_CAT_ID":62081,"ELEMENT_SET_NO":999,"REV_AT_EPOCH":8739,"BSTAR":0.000063440889,"MEAN_MOTION_DOT":0.00000353,"MEAN_MOTION_DDOT":0},{"OBJECT_NAME":"KINEIS-5D","OBJECT_ID":"2024-219B","EPOCH":"2026-07-11T21:25:47.228736","CLASSIFICATION_TYPE":"U","MEAN_MOTION":14.72489982,"ECCENTRICITY":0.0005014,"INCLINATION":97.9176,"RA_OF_ASC_NODE":351.1243,"ARG_OF_PERICENTER":177.3459,"MEAN_ANOMALY":182.7776,"EPHEMERIS_TYPE":0,"NORAD_CAT_ID":62082,"ELEMENT_SET_NO":999,"REV_AT_EPOCH":8739,"BSTAR":0.000084564227,"MEAN_MOTION_DOT":0.00000488,"MEAN_MOTION_DDOT":0},{"OBJECT_NAME":"KINEIS-5E","OBJECT_ID":"2024-219C","EPOCH":"2026-07-11T21:50:49.799040","CLASSIFICATION_TYPE":"U","MEAN_MOTION":14.7229696,"ECCENTRICITY":0.00065048,"INCLINATION":97.902,"RA_OF_ASC_NODE":351.1749,"ARG_OF_PERICENTER":174.4085,"MEAN_ANOMALY":185.7197,"EPHEMERIS_TYPE":0,"NORAD_CAT_ID":62083,"ELEMENT_SET_NO":999,"REV_AT_EPOCH":8740,"BSTAR":0.000059629138,"MEAN_MOTION_DOT":0.00000328,"MEAN_MOTION_DDOT":0},{"OBJECT_NAME":"KINEIS-5A","OBJECT_ID":"2024-219D","EPOCH":"2026-07-11T14:47:49.170048","CLASSIFICATION_TYPE":"U","MEAN_MOTION":14.7223888,"ECCENTRICITY":0.00034848,"INCLINATION":97.8962,"RA_OF_ASC_NODE":351.1722,"ARG_OF_PERICENTER":213.7401,"MEAN_ANOMALY":146.3585,"EPHEMERIS_TYPE":0,"NORAD_CAT_ID":62084,"ELEMENT_SET_NO":999,"REV_AT_EPOCH":8736,"BSTAR":0.00024024396,"MEAN_MOTION_DOT":0.00001468,"MEAN_MOTION_DDOT":0},{"OBJECT_NAME":"KINEIS-5B","OBJECT_ID":"2024-219E","EPOCH":"2026-07-11T22:55:30.753984","CLASSIFICATION_TYPE":"U","MEAN_MOTION":14.78381611,"ECCENTRICITY":0.00022713,"INCLINATION":98.0086,"RA_OF_ASC_NODE":356.6489,"ARG_OF_PERICENTER":151.8073,"MEAN_ANOMALY":208.3261,"EPHEMERIS_TYPE":0,"NORAD_CAT_ID":62085,"ELEMENT_SET_NO":999,"REV_AT_EPOCH":8766,"BSTAR":0.000089006904,"MEAN_MOTION_DOT":0.00000596,"MEAN_MOTION_DDOT":0},{"OBJECT_NAME":"KINEIS-2C","OBJECT_ID":"2025-028B","EPOCH":"2026-07-11T16:49:26.444064","CLASSIFICATION_TYPE":"U","MEAN_MOTION":14.73423103,"ECCENTRICITY":0.00039724,"INCLINATION":98.1232,"RA_OF_ASC_NODE":247.1208,"ARG_OF_PERICENTER":168.716,"MEAN_ANOMALY":191.4138,"EPHEMERIS_TYPE":0,"NORAD_CAT_ID":62929,"ELEMENT_SET_NO":999,"REV_AT_EPOCH":7622,"BSTAR":0.00013904358,"MEAN_MOTION_DOT":0.00000851,"MEAN_MOTION_DDOT":0}]}
