KINEIS-1B               
1 60079U 24114A   26192.92115490  .00000446  00000+0  64926-4 0  9999
2 60079  97.9827 216.9885 0003189  45.5229 314.6243 14.80664159111069
KINEIS-1C               
1 60081U 24114C   26192.95479161  .00000411  00000+0  60368-4 0  9991
2 60081  97.9841 216.8766 0002559  98.8957 261.2545 14.80666107111049
KINEIS-1D               
1 60082U 24114D   26192.98557015  .00000350  00000+0  57759-4 0  9992
2 60082  97.9877 212.8503 0002918 103.2968 256.8568 14.76360216110788
KINEIS-1E               
1 60083U 24114E   26192.90508675  .00000507  00000+0  72644-4 0  9997
2 60083  97.8943 215.9328 0004025 116.4344 243.7281 14.80690854111042
KINEIS-1A               
1 60084U 24114F   26193.00608067  .00000458  00000+0  66320-4 0  9995
2 60084  97.8917 216.1271 0005513  70.2190 289.9616 14.80679496111068
KINEIS-3C               
1 61220U 24172A   26189.82018517  .00001184  00000+0  19490-3 0  9994
2 61220  98.0431 279.4900 0002749  92.2536 267.8986 14.72355818 96250
KINEIS-3D               
1 61221U 24172B   26189.81344248  .00001106  00000+0  18256-3 0  9990
2 61221  98.0427 279.4937 0002612  92.0165 268.1342 14.72360142 96538
KINEIS-3E               
1 61222U 24172C   26192.78672176  .00000955  00000+0  15894-3 0  9991
2 61222  98.0428 282.4170 0001818  90.9635 269.1780 14.72333196 96973
KINEIS-3A               
1 61223U 24172D   26192.77022970  .00000951  00000+0  15834-3 0  9992
2 61223  98.0425 282.4988 0002400  49.1572 310.9843 14.72302947 96393
KINEIS-3B               
1 61224U 24172E   26192.75282388  .00000947  00000+0  15780-3 0  9997
2 61224  98.0418 282.5042 0001880  36.5803 323.5532 14.72289102 96961
KINEIS-5C               
1 62081U 24219A   26192.93395279  .00000353  00000+0  63441-4 0  9994
2 62081  97.9062 351.1018 0003889 183.0482 177.0703 14.72312238 87390
KINEIS-5D               
1 62082U 24219B   26192.89290774  .00000488  00000+0  84564-4 0  9992
2 62082  97.9176 351.1243 0005014 177.3459 182.7776 14.72489982 87393
KINEIS-5E               
1 62083U 24219C   26192.91029860  .00000328  00000+0  59629-4 0  9999
2 62083  97.9020 351.1749 0006504 174.4085 185.7197 14.72296960 87405
KINEIS-5A               
1 62084U 24219D   26192.61654132  .00001468  00000+0  24024-3 0  9999
2 62084  97.8962 351.1722 0003484 213.7401 146.3585 14.72238880 87360
KINEIS-5B               
1 62085U 24219E   26192.95521706  .00000596  00000+0  89007-4 0  9991
2 62085  98.0086 356.6489 0002271 151.8073 208.3261 14.78381611 87661
KINEIS-2C               
1 62929U 25028B   26192.70100051  .00000851  00000+0  13904-3 0  9992
2 62929  98.1232 247.1208 0003972 168.7160 191.4138 14.73423103 76221
